start=new Date('2023-01-22T00:00:00.000Z').valueOf();
sats=[{"TLE_LINE1":"1 49768U 21115AW  23021.62265364  .00004334  00000-0  29018-3 0  9993","MEAN_MOTION_DOT":"0.00004334","DECAY_DATE":null,"INCLINATION":"53.2129","RCS_SIZE":"LARGE","BSTAR":"0.00029018000000","MEAN_MOTION":"15.08848549","MEAN_MOTION_DDOT":"0.0000000000000","OBJECT_NAME":"STARLINK-3196","RA_OF_ASC_NODE":"230.5540","TIME_SYSTEM":"UTC","PERIAPSIS":"538.782","PERIOD":"95.437","ARG_OF_PERICENTER":"96.2208","NORAD_CAT_ID":"49768","ELEMENT_SET_NO":"999","SITE":"AFETR","REV_AT_EPOCH":"6422","EPOCH":"2023-01-21T14:56:37.274496","COUNTRY_CODE":"US","GP_ID":"223580747","MEAN_ELEMENT_THEORY":"SGP4","EPHEMERIS_TYPE":"0","CENTER_NAME":"EARTH","APOAPSIS":"540.657","REF_FRAME":"TEME","LAUNCH_DATE":"2021-12-02","OBJECT_TYPE":"PAYLOAD","CLASSIFICATION_TYPE":"U","TLE_LINE2":"2 49768  53.2129 230.5540 0001355  96.2208 263.8938 15.08848549 64223","OBJECT_ID":"2021-115AW","MEAN_ANOMALY":"263.8938","SEMIMAJOR_AXIS":"6917.854","FILE":"3757293","ECCENTRICITY":"0.00013550"},{"BSTAR":"0.00006670200000","MEAN_MOTION":"15.08846705","MEAN_MOTION_DDOT":"0.0000000000000","OBJECT_NAME":"STARLINK-3208","RA_OF_ASC_NODE":"233.8460","TIME_SYSTEM":"UTC","PERIAPSIS":"538.815","TLE_LINE1":"1 49769U 21115AX  23020.89033051  .00000774  00000-0  66702-4 0  9994","MEAN_MOTION_DOT":"0.00000774","DECAY_DATE":null,"INCLINATION":"53.2161","RCS_SIZE":"LARGE","SITE":"AFETR","REV_AT_EPOCH":"6411","EPOCH":"2023-01-20T21:22:04.556064","PERIOD":"95.437","ARG_OF_PERICENTER":"83.7303","ELEMENT_SET_NO":"999","NORAD_CAT_ID":"49769","MEAN_ELEMENT_THEORY":"SGP4","CENTER_NAME":"EARTH","EPHEMERIS_TYPE":"0","APOAPSIS":"540.635","LAUNCH_DATE":"2021-12-02","REF_FRAME":"TEME","OBJECT_TYPE":"PAYLOAD","COUNTRY_CODE":"US","GP_ID":"223555751","FILE":"3756225","ECCENTRICITY":"0.00013160","CLASSIFICATION_TYPE":"U","TLE_LINE2":"2 49769  53.2161 233.8460 0001316  83.7303 276.3839 15.08846705 64110","OBJECT_ID":"2021-115AX","MEAN_ANOMALY":"276.3839","SEMIMAJOR_AXIS":"6917.860"},{"CLASSIFICATION_TYPE":"U","SEMIMAJOR_AXIS":"6917.835","OBJECT_ID":"2021-115AY","MEAN_ANOMALY":"270.2878","TLE_LINE2":"2 49770  53.2128 232.0244 0002074  89.8352 270.2878 15.08854695 64178","FILE":"3757034","ECCENTRICITY":"0.00020740","COUNTRY_CODE":"US","GP_ID":"223574815","LAUNCH_DATE":"2021-12-02","REF_FRAME":"TEME","APOAPSIS":"541.135","CENTER_NAME":"EARTH","EPHEMERIS_TYPE":"0","MEAN_ELEMENT_THEORY":"SGP4","OBJECT_TYPE":"PAYLOAD","ARG_OF_PERICENTER":"89.8352","PERIOD":"95.437","ELEMENT_SET_NO":"999","NORAD_CAT_ID":"49770","EPOCH":"2023-01-21T07:04:59.549952","REV_AT_EPOCH":"6417","SITE":"AFETR","TLE_LINE1":"1 49770U 21115AY  23021.29513368  .00011802  00000-0  75806-3 0  9993","RCS_SIZE":"LARGE","INCLINATION":"53.2128","DECAY_DATE":null,"MEAN_MOTION_DOT":"0.00011802","BSTAR":"0.00075806000000","MEAN_MOTION":"15.08854695","PERIAPSIS":"538.266","TIME_SYSTEM":"UTC","RA_OF_ASC_NODE":"232.0244","OBJECT_NAME":"STARLINK-3191","MEAN_MOTION_DDOT":"0.0000000000000"},{"GP_ID":"223574616","COUNTRY_CODE":"US","MEAN_ELEMENT_THEORY":"SGP4","CENTER_NAME":"EARTH","EPHEMERIS_TYPE":"0","APOAPSIS":"540.782","REF_FRAME":"TEME","LAUNCH_DATE":"2021-12-02","OBJECT_TYPE":"PAYLOAD","CLASSIFICATION_TYPE":"U","TLE_LINE2":"2 49771  53.2141 231.4038 0001497  73.3964 286.7192 15.08839524 64190","OBJECT_ID":"2021-115AZ","MEAN_ANOMALY":"286.7192","SEMIMAJOR_AXIS":"6917.882","FILE":"3757035","ECCENTRICITY":"0.00014970","TLE_LINE1":"1 49771U 21115AZ  23021.43129594  .00005070  00000-0  33639-3 0  9992","MEAN_MOTION_DOT":"0.00005070","DECAY_DATE":null,"INCLINATION":"53.2141","RCS_SIZE":"LARGE","BSTAR":"0.00033639000000","MEAN_MOTION":"15.08839524","MEAN_MOTION_DDOT":"0.0000000000000","OBJECT_NAME":"STARLINK-3201","RA_OF_ASC_NODE":"231.4038","TIME_SYSTEM":"UTC","PERIAPSIS":"538.711","PERIOD":"95.438","ARG_OF_PERICENTER":"73.3964","NORAD_CAT_ID":"49771","ELEMENT_SET_NO":"999","SITE":"AFETR","REV_AT_EPOCH":"6419","EPOCH":"2023-01-21T10:21:03.969216"},{"EPOCH":"2023-01-21T13:55:44.333472","SITE":"AFWTR","REV_AT_EPOCH":"6354","ELEMENT_SET_NO":"999","NORAD_CAT_ID":"50156","ARG_OF_PERICENTER":"89.8844","PERIOD":"95.437","RA_OF_ASC_NODE":"340.7502","TIME_SYSTEM":"UTC","PERIAPSIS":"537.421","MEAN_MOTION_DDOT":"0.0000000000000","OBJECT_NAME":"STARLINK-3317","BSTAR":"0.00083599000000","MEAN_MOTION":"15.08852368","INCLINATION":"53.2143","RCS_SIZE":"LARGE","MEAN_MOTION_DOT":"0.00013047","DECAY_DATE":null,"TLE_LINE1":"1 50156U 21125A   23021.58037423  .00013047  00000-0  83599-3 0  9990","ECCENTRICITY":"0.00033060","FILE":"3757302","SEMIMAJOR_AXIS":"6917.843","TLE_LINE2":"2 50156  53.2143 340.7502 0003306  89.8844 270.2526 15.08852368 63549","OBJECT_ID":"2021-125A","MEAN_ANOMALY":"270.2526","CLASSIFICATION_TYPE":"U","OBJECT_TYPE":"PAYLOAD","APOAPSIS":"541.995","REF_FRAME":"TEME","LAUNCH_DATE":"2021-12-18","MEAN_ELEMENT_THEORY":"SGP4","CENTER_NAME":"EARTH","EPHEMERIS_TYPE":"0","GP_ID":"223580844","COUNTRY_CODE":"US"},{"TLE_LINE1":"1 50157U 21125B   23021.14058660  .00029438  00000-0  18603-2 0  9993","INCLINATION":"53.2166","RCS_SIZE":"LARGE","MEAN_MOTION_DOT":"0.00029438","DECAY_DATE":null,"BSTAR":"0.00186030000000","MEAN_MOTION":"15.08833889","TIME_SYSTEM":"UTC","RA_OF_ASC_NODE":"352.7174","PERIAPSIS":"538.605","MEAN_MOTION_DDOT":"0.0000000000000","OBJECT_NAME":"STARLINK-3313","ARG_OF_PERICENTER":"94.5034","PERIOD":"95.438","ELEMENT_SET_NO":"999","NORAD_CAT_ID":"50157","EPOCH":"2023-01-21T03:22:26.682240","SITE":"AFWTR","REV_AT_EPOCH":"6073","COUNTRY_CODE":"US","GP_ID":"223559754","APOAPSIS":"540.924","LAUNCH_DATE":"2021-12-18","REF_FRAME":"TEME","MEAN_ELEMENT_THEORY":"SGP4","EPHEMERIS_TYPE":"0","CENTER_NAME":"EARTH","OBJECT_TYPE":"PAYLOAD","CLASSIFICATION_TYPE":"U","SEMIMAJOR_AXIS":"6917.899","TLE_LINE2":"2 50157  53.2166 352.7174 0001676  94.5034 265.6150 15.08833889 60731","OBJECT_ID":"2021-125B","MEAN_ANOMALY":"265.6150","FILE":"3756385","ECCENTRICITY":"0.00016760"},{"EPOCH":"2023-01-21T04:41:54.463200","REV_AT_EPOCH":"6074","SITE":"AFWTR","NORAD_CAT_ID":"50158","ELEMENT_SET_NO":"999","ARG_OF_PERICENTER":"93.6848","PERIOD":"95.437","PERIAPSIS":"538.674","RA_OF_ASC_NODE":"352.4775","TIME_SYSTEM":"UTC","OBJECT_NAME":"STARLINK-3309","MEAN_MOTION_DDOT":"0.0000000000000","BSTAR":"0.00010829000000","MEAN_MOTION":"15.08845187","RCS_SIZE":"LARGE","INCLINATION":"53.2139","DECAY_DATE":null,"MEAN_MOTION_DOT":"0.00001436","TLE_LINE1":"1 50158U 21125C   23021.19576925  .00001436  00000-0  10829-3 0  9999","ECCENTRICITY":"0.00015260","FILE":"3756385","SEMIMAJOR_AXIS":"6917.865","MEAN_ANOMALY":"266.4319","OBJECT_ID":"2021-125C","TLE_LINE2":"2 50158  53.2139 352.4775 0001526  93.6848 266.4319 15.08845187 60744","CLASSIFICATION_TYPE":"U","OBJECT_TYPE":"PAYLOAD","LAUNCH_DATE":"2021-12-18","REF_FRAME":"TEME","APOAPSIS":"540.785","CENTER_NAME":"EARTH","EPHEMERIS_TYPE":"0","MEAN_ELEMENT_THEORY":"SGP4","GP_ID":"223559560","COUNTRY_CODE":"US"},{"REV_AT_EPOCH":"6028","SITE":"AFWTR","EPOCH":"2023-01-21T04:36:36.455040","NORAD_CAT_ID":"50159","ELEMENT_SET_NO":"999","PERIOD":"95.437","ARG_OF_PERICENTER":"89.2920","OBJECT_NAME":"STARLINK-3297","MEAN_MOTION_DDOT":"0.0000000000000","PERIAPSIS":"538.646","RA_OF_ASC_NODE":"352.4742","TIME_SYSTEM":"UTC","BSTAR":"0.00066245000000","MEAN_MOTION":"15.08848298","DECAY_DATE":null,"MEAN_MOTION_DOT":"0.00010273","RCS_SIZE":"LARGE","INCLINATION":"53.2173","TLE_LINE1":"1 50159U 21125D   23021.19208860  .00010273  00000-0  66245-3 0  9992","ECCENTRICITY":"0.00015530","FILE":"3757040","OBJECT_ID":"2021-125D","MEAN_ANOMALY":"270.8250","TLE_LINE2":"2 50159  53.2173 352.4742 0001553  89.2920 270.8250 15.08848298 60287","SEMIMAJOR_AXIS":"6917.855","CLASSIFICATION_TYPE":"U","OBJECT_TYPE":"PAYLOAD","CENTER_NAME":"EARTH","EPHEMERIS_TYPE":"0","MEAN_ELEMENT_THEORY":"SGP4","LAUNCH_DATE":"2021-12-18","REF_FRAME":"TEME","APOAPSIS":"540.794","GP_ID":"223574902","COUNTRY_CODE":"US"},{"OBJECT_TYPE":"PAYLOAD","MEAN_ELEMENT_THEORY":"SGP4","CENTER_NAME":"EARTH","EPHEMERIS_TYPE":"0","APOAPSIS":"541.053","LAUNCH_DATE":"2021-12-18","REF_FRAME":"TEME","GP_ID":"223548162","COUNTRY_CODE":"US","ECCENTRICITY":"0.00018370","FILE":"3755973","TLE_LINE2":"2 50160  53.2171 356.3148 0001837  64.3044 295.8138 15.08827930 63708","MEAN_ANOMALY":"295.8138","OBJECT_ID":"2021-125E","SEMIMAJOR_AXIS":"6917.917","CLASSIFICATION_TYPE":"U","MEAN_MOTION_DDOT":"0.0000000000000","OBJECT_NAME":"STARLINK-3288","RA_OF_ASC_NODE":"356.3148","TIME_SYSTEM":"UTC","PERIAPSIS":"538.511","BSTAR":"0.00142670000000","MEAN_MOTION":"15.08827930","MEAN_MOTION_DOT":"0.00022483","DECAY_DATE":null,"INCLINATION":"53.2171","RCS_SIZE":"LARGE","TLE_LINE1":"1 50160U 21125E   23020.33833473  .00022483  00000-0  14267-2 0  9995","SITE":"AFWTR","REV_AT_EPOCH":"6370","EPOCH":"2023-01-20T08:07:12.120672","ELEMENT_SET_NO":"999","NORAD_CAT_ID":"50160","PERIOD":"95.438","ARG_OF_PERICENTER":"64.3044"},{"CLASSIFICATION_TYPE":"U","SEMIMAJOR_AXIS":"6917.807","TLE_LINE2":"2 50161  53.2167 352.1376 0001586  82.2681 277.8492 15.08864109 63351","OBJECT_ID":"2021-125F","MEAN_ANOMALY":"277.8492","FILE":"3756780","ECCENTRICITY":"0.00015860","GP_ID":"223568617","COUNTRY_CODE":"US","APOAPSIS":"540.769","REF_FRAME":"TEME","LAUNCH_DATE":"2021-12-18","MEAN_ELEMENT_THEORY":"SGP4","EPHEMERIS_TYPE":"0","CENTER_NAME":"EARTH","OBJECT_TYPE":"PAYLOAD","ARG_OF_PERICENTER":"82.2681","PERIOD":"95.436","NORAD_CAT_ID":"50161","ELEMENT_SET_NO":"999","EPOCH":"2023-01-21T06:27:53.748576","SITE":"AFWTR","REV_AT_EPOCH":"6335","TLE_LINE1":"1 50161U 21125F   23021.26937209  .00022474  00000-0  14247-2 0  9999","INCLINATION":"53.2167","RCS_SIZE":"LARGE","MEAN_MOTION_DOT":"0.00022474","DECAY_DATE":null,"BSTAR":"0.00142470000000","MEAN_MOTION":"15.08864109","TIME_SYSTEM":"UTC","RA_OF_ASC_NODE":"352.1376","PERIAPSIS":"538.575","MEAN_MOTION_DDOT":"0.0000000000000","OBJECT_NAME":"STARLINK-3304"}];
